COSMOS 2058             
1 20465U 90010A   26179.84882749  .00002668  00000+0  15328-3 0  9995
2 20465  82.4698 297.8547 0008621 314.8328  45.2201 15.12086229959030
SL-14 R/B               
1 20466U 90010B   26179.97036970  .00000372  00000+0  42178-4 0  9991
2 20466  82.5021 162.8787 0018308 295.2322  64.6995 14.83653553944988
SL-14 R/B               
1 20511U 90018B   26179.89281378  .00000389  00000+0  45719-4 0  9997
2 20511  82.5219 119.1671 0017706  86.3805 273.9434 14.82223856939054
HST                     
1 20580U 90037B   26179.87800082  .00006406  00000+0  20097-3 0  9998
2 20580  28.4733   0.6674 0001411 286.0347  74.0094 15.30881351790368
SL-16 R/B               
1 20625U 90046B   26179.96566694 -.00000240  00000+0 -99404-4 0  9997
2 20625  70.9998  64.2121 0012620 142.9188 217.2809 14.15025605864139
COSMOS 2084             
1 20663U 90055A   26179.81304452  .00001965  00000+0  14724-3 0  9999
2 20663  62.7911 316.4080 0006284 298.7251  61.3218 15.06163547953052
SL-6 R/B(2)             
1 20666U 90055D   26179.61797492  .00001341  00000+0  10940-3 0  9994
2 20666  62.7808 236.4780 0042516   6.7117 353.4543 15.04035900954870
SL-8 R/B                
1 20775U 90078B   26179.92656701  .00028057  00000+0  79313-3 0  9993
2 20775  82.9014 151.0334 0347561 358.8349   1.2019 14.92898314825872
SL-8 R/B                
1 21088U 91006B   26179.83088836  .00000066  00000+0  50907-4 0  9990
2 21088  82.9424  87.3721 0023891  83.8548 340.0183 13.77506958779370
OKEAN-3                 
1 21397U 91039A   26179.63818328  .00001773  00000+0  12162-3 0  9990
2 21397  82.5161 229.2780 0012719 315.5138  44.5067 15.05376181881722
COSMOS 2151             
1 21422U 91042A   26179.93024001  .00001585  00000+0  12361-3 0  9995
2 21422  82.4967 336.3470 0013350  48.3477 311.8888 15.00470830879874
SL-14 R/B               
1 21423U 91042B   26179.90181255  .00000331  00000+0  38832-4 0  9998
2 21423  82.4937 115.9106 0015684 232.6057 127.3730 14.81909324869545
ERS-1                   
1 21574U 91050A   26179.91157545  .00000306  00000+0  11241-3 0  9996
2 21574  98.7794 200.8960 0030967 230.8940 128.9492 14.39524181831736
ARIANE 40 R/B           
1 21610U 91050F   26179.69856688  .00000259  00000+0  89713-4 0  9993
2 21610  98.1870 227.6669 0004488  96.5733 263.5969 14.42963302835000
INTERCOSMOS 25          
1 21819U 91086A   26179.91475223  .00000627  00000+0  12412-3 0  9990
2 21819  82.6037 242.7133 1484004 237.0685 107.9073 12.12214914510160
SL-8 R/B                
1 21876U 92008B   26179.97859880  .00000145  00000+0  13312-3 0  9994
2 21876  82.9259 185.0202 0034613 181.3246 239.5829 13.75980035724722
SL-8 R/B                
1 21938U 92020B   26179.97308704  .00000061  00000+0  47813-4 0  9992
2 21938  82.9302  71.1032 0028908 349.9952  20.5990 13.75549931716434
USA 81                  
1 21949U 92023A   26179.94083214  .00000156  00000+0  50241-4 0  9994
2 21949  85.0068  67.2237 0002590  74.7331 285.4148 14.32401060110715
COSMOS 2219             
1 22219U 92076A   26179.93302412  .00000225  00000+0  14250-3 0  9992
2 22219  71.0602 145.5172 0017223  24.1911 336.0016 14.14107331734101
SL-16 R/B               
1 22220U 92076B   26179.82984321 -.00000195  00000+0 -73412-4 0  9991
2 22220  71.0014 314.2547 0015024 283.4114 188.2852 14.16875277737575
COSMOS 2221             
1 22236U 92080A   26179.90679094  .00001452  00000+0  12512-3 0  9998
2 22236  82.5031 172.5358 0014368 171.8656 188.2802 14.96562548797421
SL-16 R/B               
1 22285U 92093B   26179.90291990  .00000265  00000+0  15988-3 0  9992
2 22285  71.0209 130.7965 0003338 166.0591 194.0625 14.15462280728890
COSMOS 2228             
1 22286U 92094A   26179.91393213  .00001806  00000+0  15190-3 0  9993
2 22286  82.5183 130.8104 0016090 289.7354  70.2133 14.97626651792708
SL-16 R/B               
1 22566U 93016B   26179.88419556 -.00000214  00000+0 -85138-4 0  9998
2 22566  71.0088 341.6387 0009421 166.6933 193.4440 14.15315234717907
COSMOS 2242             
1 22626U 93024A   26179.94559221  .00001701  00000+0  14561-3 0  9996
2 22626  82.5183 160.2928 0014496 293.5637  66.4062 14.96938303797030
SL-16 R/B               
1 22803U 93059B   26179.92392900  .00000184  00000+0  11459-3 0  9995
2 22803  70.9894 136.5530 0015768  34.5742 325.6403 14.17247912695291
ARIANE 40 R/B           
1 22830U 93061H   26179.93651187  .00000172  00000+0  78723-4 0  9999
2 22830  98.4815 246.5493 0009782 319.7592  40.2867 14.32912293710031
COSMOS 2278             
1 23087U 94023A   26179.77470799 -.00000196  00000+0 -77627-4 0  9993
2 23087  71.0551 302.6813 0010406 229.6833 130.3381 14.14397808660510
SL-16 R/B               
1 23088U 94023B   26179.77130622 -.00000152  00000+0 -53836-4 0  9990
2 23088  70.9984 197.6038 0001963 176.5355 183.5781 14.15027280661809
SL-16 R/B               
1 23343U 94074B   26179.98282450  .00000395  00000+0  59373-4 0  9999
2 23343  97.6987 206.2122 0005769 207.0243 214.1089 14.79511818703700
