OBJECT_NAME,OBJECT_ID,EPOCH,MEAN_MOTION,ECCENTRICITY,INCLINATION,RA_OF_ASC_NODE,ARG_OF_PERICENTER,MEAN_ANOMALY,EPHEMERIS_TYPE,CLASSIFICATION_TYPE,NORAD_CAT_ID,ELEMENT_SET_NO,REV_AT_EPOCH,BSTAR,MEAN_MOTION_DOT,MEAN_MOTION_DDOT
COSMOS 2058,1990-010A,2026-06-28T20:22:18.695136,15.12086229,.00086214,82.4698,297.8547,314.8328,45.2201,0,U,20465,999,95903,.15327992E-3,.2668E-4,0
SL-14 R/B,1990-010B,2026-06-28T23:17:19.942080,14.83653553,.0018308,82.5021,162.8787,295.2322,64.6995,0,U,20466,999,94498,.42178399E-4,.372E-5,0
SL-14 R/B,1990-018B,2026-06-28T21:25:39.110592,14.82223856,.00177062,82.5219,119.1671,86.3805,273.9434,0,U,20511,999,93905,.45719162E-4,.389E-5,0
HST,1990-037B,2026-06-28T21:04:19.270848,15.30881351,.00014112,28.4733,0.6674,286.0347,74.0094,0,U,20580,999,79036,.20096634E-3,.6406E-4,0
SL-16 R/B,1990-046B,2026-06-28T23:10:33.623616,14.15025605,.00126206,70.9998,64.2121,142.9188,217.2809,0,U,20625,999,86413,-.99404286E-4,-.24E-5,0
COSMOS 2084,1990-055A,2026-06-28T19:30:47.046528,15.06163547,.00062847,62.7911,316.4080,298.7251,61.3218,0,U,20663,999,95305,.14724174E-3,.1965E-4,0
SL-6 R/B(2),1990-055D,2026-06-28T14:49:53.033088,15.04035900,.0042516,62.7808,236.4780,6.7117,353.4543,0,U,20666,999,95487,.10940275E-3,.1341E-4,0
SL-8 R/B,1990-078B,2026-06-28T22:14:15.389664,14.92898314,.03475619,82.9014,151.0334,358.8349,1.2019,0,U,20775,999,82587,.79312841E-3,.28057E-3,0
SL-8 R/B,1991-006B,2026-06-28T19:56:28.754304,13.77506958,.00238911,82.9424,87.3721,83.8548,340.0183,0,U,21088,999,77937,.50906721E-4,.66E-6,0
OKEAN-3,1991-039A,2026-06-28T15:18:59.035392,15.05376181,.00127197,82.5161,229.2780,315.5138,44.5067,0,U,21397,999,88172,.12162442E-3,.1773E-4,0
COSMOS 2151,1991-042A,2026-06-28T22:19:32.736864,15.00470830,.001335,82.4967,336.3470,48.3477,311.8888,0,U,21422,999,87987,.12360597E-3,.1585E-4,0
SL-14 R/B,1991-042B,2026-06-28T21:38:36.604320,14.81909324,.00156848,82.4937,115.9106,232.6057,127.3730,0,U,21423,999,86954,.38831782E-4,.331E-5,0
ERS-1,1991-050A,2026-06-28T21:52:40.118880,14.39524181,.00309674,98.7794,200.8960,230.8940,128.9492,0,U,21574,999,83173,.11241453E-3,.306E-5,0
ARIANE 40 R/B,1991-050F,2026-06-28T16:45:56.178432,14.42963302,.00044883,98.1870,227.6669,96.5733,263.5969,0,U,21610,999,83500,.89712934E-4,.259E-5,0
INTERCOSMOS 25,1991-086A,2026-06-28T21:57:14.592672,12.12214914,.14840042,82.6037,242.7133,237.0685,107.9073,0,U,21819,999,51016,.1241153E-3,.627E-5,0
SL-8 R/B,1992-008B,2026-06-28T23:29:10.936320,13.75980035,.00346134,82.9259,185.0202,181.3246,239.5829,0,U,21876,999,72472,.13312273E-3,.145E-5,0
SL-8 R/B,1992-020B,2026-06-28T23:21:14.720256,13.75549931,.00289086,82.9302,71.1032,349.9952,20.5990,0,U,21938,999,71643,.47813069E-4,.61E-6,0
USA 81,1992-023A,2026-06-28T22:34:47.896896,14.32401060,.00025901,85.0068,67.2237,74.7331,285.4148,0,U,21949,999,11071,.50240823E-4,.156E-5,0
COSMOS 2219,1992-076A,2026-06-28T22:23:33.283968,14.14107331,.00172234,71.0602,145.5172,24.1911,336.0016,0,U,22219,999,73410,.14249594E-3,.225E-5,0
SL-16 R/B,1992-076B,2026-06-28T19:54:58.453344,14.16875277,.00150242,71.0014,314.2547,283.4114,188.2852,0,U,22220,999,73757,-.73411531E-4,-.195E-5,0
COSMOS 2221,1992-080A,2026-06-28T21:45:46.737216,14.96562548,.00143681,82.5031,172.5358,171.8656,188.2802,0,U,22236,999,79742,.12512396E-3,.1452E-4,0
SL-16 R/B,1992-093B,2026-06-28T21:40:12.279360,14.15462280,.00033382,71.0209,130.7965,166.0591,194.0625,0,U,22285,999,72889,.15988197E-3,.265E-5,0
COSMOS 2228,1992-094A,2026-06-28T21:56:03.736032,14.97626651,.00160907,82.5183,130.8104,289.7354,70.2133,0,U,22286,999,79270,.15190325E-3,.1806E-4,0
SL-16 R/B,1993-016B,2026-06-28T21:13:14.496384,14.15315234,.00094216,71.0088,341.6387,166.6933,193.4440,0,U,22566,999,71790,-.85137591E-4,-.214E-5,0
COSMOS 2242,1993-024A,2026-06-28T22:41:39.166944,14.96938303,.00144967,82.5183,160.2928,293.5637,66.4062,0,U,22626,999,79703,.14560708E-3,.1701E-4,0
SL-16 R/B,1993-059B,2026-06-28T22:10:27.465600,14.17247912,.00157686,70.9894,136.5530,34.5742,325.6403,0,U,22803,999,69529,.11458552E-3,.184E-5,0
ARIANE 40 R/B,1993-061H,2026-06-28T22:28:34.625568,14.32912293,.00097821,98.4815,246.5493,319.7592,40.2867,0,U,22830,999,71003,.78722535E-4,.172E-5,0
COSMOS 2278,1994-023A,2026-06-28T18:35:34.770336,14.14397808,.00104061,71.0551,302.6813,229.6833,130.3381,0,U,23087,999,66051,-.77627372E-4,-.196E-5,0
SL-16 R/B,1994-023B,2026-06-28T18:30:40.857408,14.15027280,.00019631,70.9984,197.6038,176.5355,183.5781,0,U,23088,999,66180,-.53835686E-4,-.152E-5,0
SL-16 R/B,1994-074B,2026-06-28T23:35:16.036800,14.79511818,.00057693,97.6987,206.2122,207.0243,214.1089,0,U,23343,999,70370,.59373453E-4,.395E-5,0
